COSMOS 2576             
1 59773U 24092A   26068.82603826  .00015211  00000+0  56283-3 0  9991
2 59773  97.4253 186.0053 0005946 159.7731 200.3745 15.27760963101271
STARLINK-32942          
1 63120U 25039S   26068.20548076  .00032645  00000+0  11895-2 0  9990
2 63120  43.0008  15.4353 0001322 243.2602 116.8114 15.27610357 57996
